{"epoch":1784710044,"count":18256,"objects":[{"id":"32060","name":"WORLDVIEW 1","type":"PAYLOAD","l1":"1 32060U 07041A   26202.62156400  .00005395  00000-0  22163-3 0  9998","l2":"2 32060  97.3903 321.8851 0002158 180.6080 179.5155 15.24605800 48120"},{"id":"35946","name":"WORLDVIEW 2","type":"PAYLOAD","l1":"1 35946U 09055A   26202.60878659  .00000050  00000-0  30939-4 0  9990","l2":"2 35946  98.4751 275.5897 0005506 114.7017 245.4744 14.37908160880592"},{"id":"40115","name":"WORLDVIEW 3","type":"PAYLOAD","l1":"1 40115U 14048A   26202.59810099  .00000556  00000-0  71370-4 0  9999","l2":"2 40115  97.8551 276.9541 0001762 146.3604 213.7723 14.85070878647013"}]}